*******************************************************************************
Ephemeris / WWW_USER Mon Mar 24 07:33:23 2025 Pasadena, USA      / Horizons    
*******************************************************************************
Target body name: (2018 RG5)                      {source: JPL#6}
Center body name: Earth (399)                     {source: DE441}
Center-site name: Mauna Kea
*******************************************************************************
Start time      : A.D. 2019-Jan-22 04:17:00.0000 UT      
Stop  time      : A.D. 2019-Jan-22 16:49:00.0000 UT      
Step-size       : 1 minutes
*******************************************************************************
Target pole/equ : undefined
Target radii    : undefined                                                    
Center geodetic : 204.5278, 19.8260847, 4.21024   {E-lon(deg),Lat(deg),Alt(km)}
Center cylindric: 204.5278, 6006.35451, 2151.0229 {E-lon(deg),Dxy(km),Dz(km)}
Center pole/equ : ITRF93                          {East-longitude positive}
Center radii    : 6378.137, 6378.137, 6356.752 km {Equator_a, b, pole_c}       
Target primary  : Sun
Vis. interferer : MOON (R_eq= 1737.400) km        {source: DE441}
Rel. light bend : Sun                             {source: DE441}
Rel. lght bnd GM: 1.3271E+11 km^3/s^2                                          
Small-body perts: Yes                             {source: SB441-N16}
Atmos refraction: NO (AIRLESS)
RA format       : HMS
Time format     : CAL 
Calendar mode   : Mixed Julian/Gregorian
RTS-only print  : NO       
EOP file        : eop.250321.p250617                                           
EOP coverage    : DATA-BASED 1962-JAN-20 TO 2025-MAR-21. PREDICTS-> 2025-JUN-16
Units conversion: 1 au= 149597870.700 km, c= 299792.458 km/s, 1 day= 86400.0 s 
Table cut-offs 1: Elevation (-90.0deg=NO ),Airmass (>38.000=NO), Daylight (YES)
Table cut-offs 2: Solar elongation (  0.0,180.0=NO ),Local Hour Angle( 0.0=NO )
Table cut-offs 3: RA/DEC angular rate (     0.0=NO )                           
*******************************************************************************
Initial IAU76/J2000 heliocentric ecliptic osculating elements (au, days, deg.):
  EPOCH=  2458374.5 ! 2018-Sep-13.00 (TDB)         Residual RMS= .44286        
   EC= .3970272763955992   QR= .9476094655819058   TP= 2458410.7007282218      
   OM= 172.9777515025259   W=  220.286388004559    IN= 6.065188755768435       
  Equivalent ICRF heliocentric cartesian coordinates (au, au/d):
   X= 1.011373795361920E+00  Y=-1.657289676662098E-01  Z=-6.569093016663846E-02
  VX=-6.707749535245534E-04 VY= 1.878070382659777E-02 VZ= 5.901532854039199E-03
Asteroid physical parameters (km, seconds, rotational period in hours):        
   GM= n.a.                RAD= n.a.               ROTPER= n.a.                
   H= 26.76                G= .150                 B-V= n.a.                   
                           ALBEDO= n.a.            STYP= n.a.                  
*******************************************************************************
 Date__(UT)__HR:MN     R.A._________(ICRF)_________DEC
******************************************************
$$SOE
 2019-Jan-22 10:26  m  09 02 23.258017 +00 20 24.53888
 2019-Jan-22 10:27  m  09 02 23.177443 +00 20 25.53615
 2019-Jan-22 10:28  m  09 02 23.096862 +00 20 26.53343
 2019-Jan-22 10:29  m  09 02 23.016276 +00 20 27.53070
 2019-Jan-22 10:30  m  09 02 22.935684 +00 20 28.52798
 2019-Jan-22 10:31  m  09 02 22.855087 +00 20 29.52526
 2019-Jan-22 10:32  m  09 02 22.774484 +00 20 30.52254
 2019-Jan-22 10:33  m  09 02 22.693876 +00 20 31.51982
 2019-Jan-22 10:34  m  09 02 22.613263 +00 20 32.51710
 2019-Jan-22 10:35  m  09 02 22.532645 +00 20 33.51438
 2019-Jan-22 10:36  m  09 02 22.452022 +00 20 34.51166
 2019-Jan-22 10:37  m  09 02 22.371394 +00 20 35.50895
 2019-Jan-22 10:38  m  09 02 22.290761 +00 20 36.50623
 2019-Jan-22 10:39  m  09 02 22.210124 +00 20 37.50352
 2019-Jan-22 10:40  m  09 02 22.129482 +00 20 38.50081
 2019-Jan-22 10:41  m  09 02 22.048836 +00 20 39.49810
 2019-Jan-22 10:42  m  09 02 21.968186 +00 20 40.49538
 2019-Jan-22 10:43  m  09 02 21.887531 +00 20 41.49267
 2019-Jan-22 10:44  m  09 02 21.806873 +00 20 42.48997
 2019-Jan-22 10:45  m  09 02 21.726211 +00 20 43.48726
 2019-Jan-22 10:46  m  09 02 21.645545 +00 20 44.48455
 2019-Jan-22 10:47  m  09 02 21.564875 +00 20 45.48185
 2019-Jan-22 10:48  m  09 02 21.484203 +00 20 46.47914
 2019-Jan-22 10:49  m  09 02 21.403526 +00 20 47.47644
 2019-Jan-22 10:50  m  09 02 21.322847 +00 20 48.47373
 2019-Jan-22 10:51  m  09 02 21.242164 +00 20 49.47103
 2019-Jan-22 10:52  m  09 02 21.161478 +00 20 50.46833
 2019-Jan-22 10:53  m  09 02 21.080790 +00 20 51.46563
 2019-Jan-22 10:54  m  09 02 21.000098 +00 20 52.46293
 2019-Jan-22 10:55  m  09 02 20.919404 +00 20 53.46023
 2019-Jan-22 10:56  m  09 02 20.838708 +00 20 54.45753
 2019-Jan-22 10:57  m  09 02 20.758009 +00 20 55.45484
 2019-Jan-22 10:58  m  09 02 20.677308 +00 20 56.45214
 2019-Jan-22 10:59  m  09 02 20.596605 +00 20 57.44945
 2019-Jan-22 11:00  m  09 02 20.515900 +00 20 58.44675
 2019-Jan-22 11:01  m  09 02 20.435193 +00 20 59.44406
 2019-Jan-22 11:02  m  09 02 20.354484 +00 21 00.44137
 2019-Jan-22 11:03  m  09 02 20.273773 +00 21 01.43867
 2019-Jan-22 11:04  m  09 02 20.193061 +00 21 02.43598
 2019-Jan-22 11:05  m  09 02 20.112347 +00 21 03.43329
 2019-Jan-22 11:06  m  09 02 20.031633 +00 21 04.43061
 2019-Jan-22 11:07  m  09 02 19.950917 +00 21 05.42792
 2019-Jan-22 11:08  m  09 02 19.870200 +00 21 06.42523
 2019-Jan-22 11:09  m  09 02 19.789482 +00 21 07.42254
 2019-Jan-22 11:10  m  09 02 19.708763 +00 21 08.41986
 2019-Jan-22 11:11  m  09 02 19.628044 +00 21 09.41717
 2019-Jan-22 11:12  m  09 02 19.547324 +00 21 10.41449
 2019-Jan-22 11:13  m  09 02 19.466604 +00 21 11.41181
 2019-Jan-22 11:14  m  09 02 19.385883 +00 21 12.40912
 2019-Jan-22 11:15  m  09 02 19.305162 +00 21 13.40644
 2019-Jan-22 11:16  m  09 02 19.224441 +00 21 14.40376
 2019-Jan-22 11:17  m  09 02 19.143721 +00 21 15.40108
 2019-Jan-22 11:18  m  09 02 19.063000 +00 21 16.39840
 2019-Jan-22 11:19  m  09 02 18.982280 +00 21 17.39573
 2019-Jan-22 11:20  t  09 02 18.901560 +00 21 18.39305
 2019-Jan-22 11:21  m  09 02 18.820841 +00 21 19.39037
 2019-Jan-22 11:22  m  09 02 18.740122 +00 21 20.38769
 2019-Jan-22 11:23  m  09 02 18.659404 +00 21 21.38502
 2019-Jan-22 11:24  m  09 02 18.578687 +00 21 22.38235
 2019-Jan-22 11:25  m  09 02 18.497972 +00 21 23.37967
 2019-Jan-22 11:26  m  09 02 18.417257 +00 21 24.37700
 2019-Jan-22 11:27  m  09 02 18.336544 +00 21 25.37433
 2019-Jan-22 11:28  m  09 02 18.255832 +00 21 26.37166
 2019-Jan-22 11:29  m  09 02 18.175121 +00 21 27.36898
 2019-Jan-22 11:30  m  09 02 18.094413 +00 21 28.36631
 2019-Jan-22 11:31  m  09 02 18.013706 +00 21 29.36365
 2019-Jan-22 11:32  m  09 02 17.933001 +00 21 30.36098
 2019-Jan-22 11:33  m  09 02 17.852298 +00 21 31.35831
 2019-Jan-22 11:34  m  09 02 17.771597 +00 21 32.35564
 2019-Jan-22 11:35  m  09 02 17.690898 +00 21 33.35298
 2019-Jan-22 11:36  m  09 02 17.610202 +00 21 34.35031
 2019-Jan-22 11:37  m  09 02 17.529508 +00 21 35.34765
 2019-Jan-22 11:38  m  09 02 17.448817 +00 21 36.34498
 2019-Jan-22 11:39  m  09 02 17.368129 +00 21 37.34232
 2019-Jan-22 11:40  m  09 02 17.287444 +00 21 38.33966
 2019-Jan-22 11:41  m  09 02 17.206761 +00 21 39.33699
 2019-Jan-22 11:42  m  09 02 17.126082 +00 21 40.33433
 2019-Jan-22 11:43  m  09 02 17.045406 +00 21 41.33167
 2019-Jan-22 11:44  m  09 02 16.964733 +00 21 42.32901
 2019-Jan-22 11:45  m  09 02 16.884064 +00 21 43.32635
 2019-Jan-22 11:46  m  09 02 16.803399 +00 21 44.32369
 2019-Jan-22 11:47  m  09 02 16.722737 +00 21 45.32104
 2019-Jan-22 11:48  m  09 02 16.642079 +00 21 46.31838
 2019-Jan-22 11:49  m  09 02 16.561425 +00 21 47.31572
 2019-Jan-22 11:50  m  09 02 16.480775 +00 21 48.31307
 2019-Jan-22 11:51  m  09 02 16.400130 +00 21 49.31041
 2019-Jan-22 11:52  m  09 02 16.319489 +00 21 50.30776
 2019-Jan-22 11:53  m  09 02 16.238852 +00 21 51.30510
 2019-Jan-22 11:54  m  09 02 16.158220 +00 21 52.30245
 2019-Jan-22 11:55  m  09 02 16.077592 +00 21 53.29980
 2019-Jan-22 11:56  m  09 02 15.996970 +00 21 54.29715
 2019-Jan-22 11:57  m  09 02 15.916352 +00 21 55.29450
 2019-Jan-22 11:58  m  09 02 15.835739 +00 21 56.29184
 2019-Jan-22 11:59  m  09 02 15.755132 +00 21 57.28919
 2019-Jan-22 12:00  m  09 02 15.674530 +00 21 58.28655
 2019-Jan-22 12:01  m  09 02 15.593933 +00 21 59.28390
 2019-Jan-22 12:02  m  09 02 15.513342 +00 22 00.28125
 2019-Jan-22 12:03  m  09 02 15.432757 +00 22 01.27860
 2019-Jan-22 12:04  m  09 02 15.352177 +00 22 02.27595
 2019-Jan-22 12:05  m  09 02 15.271604 +00 22 03.27331
 2019-Jan-22 12:06  m  09 02 15.191036 +00 22 04.27066
 2019-Jan-22 12:07  m  09 02 15.110475 +00 22 05.26802
 2019-Jan-22 12:08  m  09 02 15.029919 +00 22 06.26537
 2019-Jan-22 12:09  m  09 02 14.949371 +00 22 07.26273
 2019-Jan-22 12:10  m  09 02 14.868828 +00 22 08.26009
 2019-Jan-22 12:11  m  09 02 14.788293 +00 22 09.25744
 2019-Jan-22 12:12  m  09 02 14.707764 +00 22 10.25480
 2019-Jan-22 12:13  m  09 02 14.627242 +00 22 11.25216
 2019-Jan-22 12:14  m  09 02 14.546727 +00 22 12.24952
 2019-Jan-22 12:15  m  09 02 14.466219 +00 22 13.24688
 2019-Jan-22 12:16  m  09 02 14.385718 +00 22 14.24424
 2019-Jan-22 12:17  m  09 02 14.305225 +00 22 15.24160
 2019-Jan-22 12:18  m  09 02 14.224739 +00 22 16.23896
 2019-Jan-22 12:19  m  09 02 14.144261 +00 22 17.23633
 2019-Jan-22 12:20  m  09 02 14.063790 +00 22 18.23369
 2019-Jan-22 12:21  m  09 02 13.983328 +00 22 19.23105
 2019-Jan-22 12:22  m  09 02 13.902873 +00 22 20.22842
 2019-Jan-22 12:23  m  09 02 13.822426 +00 22 21.22578
 2019-Jan-22 12:24  m  09 02 13.741988 +00 22 22.22315
 2019-Jan-22 12:25  m  09 02 13.661558 +00 22 23.22051
 2019-Jan-22 12:26  m  09 02 13.581136 +00 22 24.21788
 2019-Jan-22 12:27  m  09 02 13.500723 +00 22 25.21525
 2019-Jan-22 12:28  m  09 02 13.420318 +00 22 26.21261
